ONEWEB-0156             
1 48052U 21025L   25051.90439602  .00000987  00000+0  26685-2 0  9997
2 48052  87.8886  55.8832 0001831  86.0288 274.1051 13.13465203190392
ONEWEB-0161             
1 48053U 21025M   25051.95360223 -.00000215  00000+0 -62345-3 0  9995
2 48053  87.8886  55.8867 0001899  83.7129 276.4216 13.13468983190333
ONEWEB-0158             
1 48054U 21025N   25051.91551803  .00000411  00000+0  10915-2 0  9999
2 48054  87.8886  55.8786 0001706  88.4843 271.6482 13.13469116190450
ONEWEB-0157             
1 48055U 21025P   25051.93932018  .00000050  00000+0  10200-3 0  9990
2 48055  87.8886  55.8856 0001993  75.7778 284.3572 13.13469051190407
ONEWEB-0162             
1 48056U 21025Q   25051.90282523  .00000234  00000+0  60655-3 0  9990
2 48056  87.8882  55.8854 0001801  87.9871 272.1464 13.13469694190362
ONEWEB-0155             
1 48057U 21025R   25051.92345733  .00000343  00000+0  90333-3 0  9993
2 48057  87.8884  55.8956 0002028  86.8003 273.3358 13.13469264190510
ONEWEB-0149             
1 48058U 21025S   25051.94406698 -.00000107  00000+0 -32766-3 0  9990
2 48058  87.8882  55.8864 0001596  88.0597 272.0715 13.13471346190324
ONEWEB-0148             
1 48059U 21025T   25051.90916615  .00000371  00000+0  98129-3 0  9998
2 48059  87.8886  55.9129 0001343  71.7854 288.3422 13.13469103190434
ONEWEB-0160             
1 48060U 21025U   25051.92503466  .00000320  00000+0  84232-3 0  9992
2 48060  87.8888  55.9060 0002120 113.8426 246.2926 13.13468428190384
ONEWEB-0163             
1 48061U 21025V   25051.91075867  .00000392  00000+0  10392-2 0  9995
2 48061  87.8885  55.8942 0001905  79.1591 280.9753 13.13469559190500
ONEWEB-0159             
1 48062U 21025W   25051.97582353  .00000070  00000+0  15791-3 0  9997
2 48062  87.8883  55.8623 0001770  82.2517 277.8813 13.13468939190433
ONEWEB-0164             
1 48063U 21025X   25051.95836364 -.00000221  00000+0 -63927-3 0  9994
2 48063  87.8883  55.8767 0002002  90.6624 269.4734 13.13468958190412
ONEWEB-0167             
1 48064U 21025Y   25051.91196130  .00000376  00000+0  99455-3 0  9995
2 48064  87.8893  55.9039 0002566  72.4242 287.7167 13.13483684190399
ONEWEB-0166             
1 48065U 21025Z   25051.93297440  .00000157  00000+0  39433-3 0  9991
2 48065  87.8880  55.8706 0001666  86.0829 274.0491 13.13468595190470
ONEWEB-0151             
1 48066U 21025AA  25051.93456216  .00000059  00000+0  12601-3 0  9999
2 48066  87.8884  55.8898 0002033  88.6602 271.4760 13.13468502190415
ONEWEB-0170             
1 48067U 21025AB  25051.56160321 -.00000149  00000+0 -44286-3 0  9994
2 48067  87.8884  55.9683 0002302  98.3850 261.7540 13.13468954190320
ONEWEB-0168             
1 48068U 21025AC  25051.92821419  .00000256  00000+0  66555-3 0  9997
2 48068  87.8888  55.8723 0001870  86.5260 273.6083 13.13468303190380
ONEWEB-0173             
1 48069U 21025AD  25051.92027778  .00000411  00000+0  10915-2 0  9995
2 48069  87.8888  55.8830 0002177  79.4064 280.7310 13.13468785190627
ONEWEB-0171             
1 48070U 21025AE  25051.95678075 -.00000254  00000+0 -72956-3 0  9993
2 48070  87.8886  55.9125 0001985  88.8571 271.2786 13.13469428190445
ONEWEB-0172             
1 48071U 21025AF  25051.93614932  .00000067  00000+0  14854-3 0  9997
2 48071  87.8889  55.8828 0001999  85.4495 274.6863 13.13468423191337
ONEWEB-0174             
1 48072U 21025AG  25051.91869652  .00000433  00000+0  11517-2 0  9996
2 48072  87.8890  55.9002 0001797  88.4964 271.6371 13.13469374190656
ONEWEB-0175             
1 48073U 21025AH  25051.94724776 -.00000147  00000+0 -43803-3 0  9995
2 48073  87.8880  55.8682 0002198  93.3550 266.7831 13.13470722190319
ONEWEB-0177             
1 48074U 21025AJ  25051.95994984 -.00000218  00000+0 -63299-3 0  9997
2 48074  87.8882  55.8777 0001932  79.8921 280.2426 13.13469329190506
ONEWEB-0178             
1 48075U 21025AK  25051.90137397  .00000212  00000+0  54661-3 0  9995
2 48075  87.8891  55.9243 0001927  81.7363 278.3984 13.13469066190541
ONEWEB-0108             
1 48076U 21025AL  25051.93773448  .00000086  00000+0  20132-3 0  9997
2 48076  87.8882  55.8780 0001688  93.2011 266.9311 13.13469087190482
ONEWEB-0169             
1 48077U 21025AM  25051.96947448 -.00000058  00000+0 -19366-3 0  9992
2 48077  87.8886  55.8880 0001681  93.8591 266.2730 13.13470002189137
ONEWEB-0176             
1 48210U 21031A   25051.88624454 -.00000024  00000+0 -98872-4 0  9991
2 48210  87.9030  25.3927 0001901  84.5779 275.5568 13.14502735186377
ONEWEB-0184             
1 48211U 21031B   25051.93539966 -.00000052  00000+0 -17529-3 0  9991
2 48211  87.9029  25.3576 0002774  85.2322 274.9124 13.14501059185061
ONEWEB-0179             
1 48212U 21031C   25051.90527724  .00000265  00000+0  68002-3 0  9994
2 48212  87.9030  25.3760 0001852  80.6907 279.4432 13.14502649185106
ONEWEB-0180             
1 48213U 21031D   25051.93856951 -.00000096  00000+0 -29461-3 0  9995
2 48213  87.9030  25.3604 0002054  79.1056 281.0304 13.14504335184994
ONEWEB-0218             
1 48214U 21031E   25051.96077571 -.00000011  00000+0 -65376-4 0  9995
2 48214  87.9027  25.3574 0002878  78.6356 281.5097 13.14504760185153
ONEWEB-0209             
1 48215U 21031F   25051.94967751 -.00000169  00000+0 -49073-3 0  9991
2 48215  87.9032  25.3996 0001854  77.8943 282.2394 13.14503117185157
ONEWEB-0198             
1 48216U 21031G   25051.93382029 -.00000059  00000+0 -19260-3 0  9993
2 48216  87.9031  25.4053 0002184  77.0450 283.0924 13.14503086185269
ONEWEB-0189             
1 48217U 21031H   25051.94649723 -.00000193  00000+0 -55565-3 0  9999
2 48217  87.9032  25.3774 0002195  74.6069 285.5303 13.14502407185007
ONEWEB-0196             
1 48218U 21031J   25051.92430043  .00000151  00000+0  37234-3 0  9996
2 48218  87.9032  25.3906 0001951  83.1005 277.0347 13.14502431184997
ONEWEB-0183             
1 48219U 21031K   25051.89892970  .00000222  00000+0  56421-3 0  9992
2 48219  87.9030  25.4094 0001695  81.4850 278.6472 13.14504534185093
ONEWEB-0185             
1 48220U 21031L   25051.92509831  .00000073  00000+0  16220-3 0  9996
2 48220  87.9031  25.3744 0001792  74.7908 285.3420 13.14503334185022
ONEWEB-0187             
1 48221U 21031M   25051.97108543  .00000089  00000+0  20679-3 0  9997
2 48221  87.9029  25.4010 0001787  80.4446 279.6886 13.14502821185046
ONEWEB-0192             
1 48222U 21031N   25051.95125709 -.00000148  00000+0 -43357-3 0  9995
2 48222  87.9032  25.4028 0001962  82.4174 277.7179 13.14502519184952
ONEWEB-0219             
1 48223U 21031P   25051.93063823  .00000003  00000+0 -27111-4 0  9992
2 48223  87.9033  25.3801 0001856  77.5176 282.6161 13.14500382185156
ONEWEB-0202             
1 48224U 21031Q   25051.91161139  .00000271  00000+0  69722-3 0  9999
2 48224  87.9029  25.4002 0002570  74.8271 285.3143 13.14500814185134
ONEWEB-0204             
1 48225U 21031R   25051.94570476 -.00000136  00000+0 -40200-3 0  9993
2 48225  87.9031  25.4054 0001511  85.1213 275.0089 13.14506107185035
ONEWEB-0205             
1 48226U 21031S   25051.92113501  .00000204  00000+0  51583-3 0  9994
2 48226  87.9031  25.3817 0001825  77.9492 282.1843 13.14502575185041
ONEWEB-0206             
1 48227U 21031T   25051.97029066  .00000096  00000+0  22318-3 0  9995
2 48227  87.9024  25.3552 0001812  81.3957 278.7378 13.14502374185008
ONEWEB-0182             
1 48228U 21031U   25051.96554095  .00000039  00000+0  71728-4 0  9997
2 48228  87.9030  25.3940 0001724  85.9425 274.1902 13.14503892185211
ONEWEB-0186             
1 48229U 21031V   25051.90051804  .00000222  00000+0  56514-3 0  9991
2 48229  87.9029  25.3691 0001894  80.2518 279.8825 13.14502353185152
ONEWEB-0181             
1 48230U 21031W   25051.95442743 -.00000093  00000+0 -28661-3 0  9994
2 48230  87.9030  25.4295 0001992  80.9670 279.1685 13.14502372185015
ONEWEB-0188             
1 48231U 21031X   25051.91637577  .00000224  00000+0  57045-3 0  9994
2 48231  87.9031  25.4298 0001827  81.7310 278.4027 13.14502101184917
ONEWEB-0220             
1 48232U 21031Y   25051.95601138 -.00000120  00000+0 -35818-3 0  9994
2 48232  87.9023  25.3718 0001791  74.3653 285.7674 13.14501087185184
ONEWEB-0165             
1 48233U 21031Z   25051.90844460  .00000260  00000+0  66782-3 0  9994
2 48233  87.9029  25.4144 0001964  79.2079 280.9272 13.14502362185136
ONEWEB-0199             
1 48234U 21031AA  25051.96870574  .00000086  00000+0  19695-3 0  9993
2 48234  87.9028  25.3682 0001892  89.3347 270.8000 13.14502782185045
ONEWEB-0203             
1 48235U 21031AB  25051.95919108 -.00000129  00000+0 -38307-3 0  9991
2 48235  87.9031  25.3725 0002173  91.7892 268.3486 13.14502080185055
ONEWEB-0197             
1 48236U 21031AC  25051.93459272 -.00000050  00000+0 -17067-3 0  9994
2 48236  87.9031  25.3879 0001505  83.3634 276.7667 13.14503688184963
ONEWEB-0194             
1 48237U 21031AD  25051.91320418  .00000269  00000+0  69129-3 0  9998
2 48237  87.9032  25.3874 0001989  91.6121 268.5236 13.14502221185132
ONEWEB-0193             
1 48238U 21031AE  25051.92905095  .00000106  00000+0  25236-3 0  9991
2 48238  87.9033  25.3921 0001991  83.9063 276.2294 13.14504060185086
ONEWEB-0191             
1 48239U 21031AF  25051.94015655 -.00000150  00000+0 -43829-3 0  9997
2 48239  87.9030  25.3660 0001992  82.8814 277.2542 13.14501283184942
ONEWEB-0195             
1 48240U 21031AG  25051.91717034  .00000203  00000+0  51373-3 0  9996
2 48240  87.9030  25.3688 0002174  74.9784 285.1586 13.14502797184920
ONEWEB-0201             
1 48241U 21031AH  25051.90607603  .00000228  00000+0  57939-3 0  9997
2 48241  87.9031  25.4138 0001898  79.2595 280.8748 13.14503714185151
ONEWEB-0207             
1 48242U 21031AJ  25051.96154709 -.00000309  00000+0 -86915-3 0  9996
2 48242  87.9030  25.3655 0001662  80.0398 280.0919 13.14502286185070
